IRIDIUM 136             
1 42962U 17061H   24238.61545217  .00000817  00000+0  28463-3 0  9999
2 42962  86.3967 301.3061 0002353  88.4126 271.7340 14.34219340360150
